BEESAT-8                
1 48085U 21022AP  24197.53966407  .00036674  00000+0  10968-2 0  9996
2 48085  97.4745  99.9433 0012611  37.4248 322.7870 15.34395095182227
LEDSAT                  
1 49069U 21073D   24197.39532813  .00022830  00000+0  88877-3 0  9993
2 49069  97.4363 268.3548 0019351 180.3552 179.7676 15.25827966160754
SITRO-AIS 5 (KATYS)     
1 57176U 23091L   24197.54371493  .00010616  00000+0  67243-3 0  9998
2 57176  97.6114 249.4893 0017871  30.7806 329.4467 15.09011039 57773
SITRO-AIS 6 (CHIRKIN)   
1 57192U 23091AC  24197.46145053  .00009968  00000+0  63073-3 0  9993
2 57192  97.6110 249.4345 0017668  30.9672 329.2595 15.09067109 57764
SITRO-AIS 8 (ANOKHIN)   
1 57193U 23091AD  24197.48938517  .00011734  00000+0  73458-3 0  9993
2 57193  97.6109 249.5422 0017330  31.2242 329.0013 15.09421548 57778
SITRO-AIS 7 (FARTUSHNIY)
1 57194U 23091AE  24197.46731594  .00010426  00000+0  66035-3 0  9998
2 57194  97.6110 249.4197 0017590  31.7094 328.5190 15.09021825 57760
SITRO-AIS 10 (BURDAEV)  
1 57199U 23091AK  24197.49171533  .00012494  00000+0  74438-3 0  9990
2 57199  97.6124 250.5310 0012144  21.4502 338.7235 15.11272013 57831
SITRO-AIS 9 (SHCHUKIN)  
1 57201U 23091AM  24197.49034261  .00012495  00000+0  74483-3 0  9991
2 57201  97.6120 250.5078 0012097  21.4801 338.6934 15.11254354 57834
SITRO-AIS 12 (SMIRENNIY)
1 57204U 23091AQ  24197.51545544  .00012499  00000+0  74122-3 0  9992
2 57204  97.6123 250.6753 0011840  15.4244 344.7344 15.11445622 57844
SITRO-AIS 11 (SHEFFER)  
1 57208U 23091AU  24197.43336534  .00013238  00000+0  78288-3 0  9993
2 57208  97.6123 250.6189 0011706  15.9331 344.2264 15.11530518 57838
SITRO-AIS 29            
1 59052U 24039B   24197.50690519  .00029194  00000+0  10259-2 0  9990
2 59052  97.3922 159.3040 0020159 114.1798 246.1552 15.29138516 20924
SITRO-AIS 30            
1 59053U 24039C   24197.50750081  .00029027  00000+0  10221-2 0  9996
2 59053  97.3920 159.2988 0020252 114.8434 245.4915 15.29070998 20914
SITRO-AIS 31            
1 59054U 24039D   24197.49835607  .00028955  00000+0  10151-2 0  9994
2 59054  97.3921 159.3117 0020151 114.7837 245.5502 15.29216564 20931
SITRO-AIS 33            
1 59055U 24039E   24197.48788380  .00028771  00000+0  10047-2 0  9999
2 59055  97.3924 159.3311 0019872 115.4246 244.9054 15.29352197 20928
SITRO-AIS 35            
1 59056U 24039F   24197.48393937  .00026084  00000+0  91079-3 0  9990
2 59056  97.3922 159.3335 0019678 115.5580 244.7697 15.29378024 20927
SITRO-AIS 32            
1 59057U 24039G   24197.49242168  .00028431  00000+0  99646-3 0  9997
2 59057  97.3923 159.3242 0019722 115.6663 244.6617 15.29238307 20929
SITRO-AIS 34            
1 59058U 24039H   24197.48807070  .00028307  00000+0  98979-3 0  9996
2 59058  97.3925 159.3322 0019862 115.6147 244.7149 15.29313021 20921
SITRO-AIS 36            
1 59059U 24039J   24197.47843794  .00028975  00000+0  10090-2 0  9997
2 59059  97.3921 159.3410 0019461 115.7683 244.5569 15.29449511 20925
SITRO-AIS 49            
1 59060U 24039K   24197.47913642  .00028697  00000+0  10007-2 0  9998
2 59060  97.3921 159.3403 0019488 115.3323 244.9938 15.29405403 20921
SITRO-AIS 50            
1 59061U 24039L   24197.53334139  .00029731  00000+0  10311-2 0  9992
2 59061  97.3921 159.4191 0019345 115.3444 244.9802 15.29578874 20937
SITRO-AIS 51            
1 59062U 24039M   24197.53312492  .00029965  00000+0  10395-2 0  9992
2 59062  97.3920 159.4201 0019360 115.1608 245.1643 15.29568607 20935
SITRO-AIS 52            
1 59063U 24039N   24197.52559329  .00029747  00000+0  10288-2 0  9993
2 59063  97.3922 159.4313 0019246 115.1367 245.1872 15.29671461 20934
SITRO-AIS 25            
1 59066U 24039R   24197.48036956  .00004596  00000+0  44088-3 0  9998
2 59066  95.4017 116.5313 0168681 245.3922 112.9644 14.83206165 20309
SITRO-AIS 26            
1 59067U 24039S   24197.48048319  .00004775  00000+0  45847-3 0  9998
2 59067  95.4017 116.5304 0168611 245.4300 112.9269 14.83171967 20308
SITRO-AIS 27            
1 59068U 24039T   24197.53557829  .00005056  00000+0  48350-3 0  9991
2 59068  95.4019 116.5911 0168228 245.0373 113.3291 14.83347369 20317
SITRO-AIS 28            
1 59071U 24039U   24197.53223757  .00005139  00000+0  49108-3 0  9999
2 59071  95.4020 116.5955 0168065 245.0215 113.3468 14.83389575 20316
BEIJING 1               
1 28890U 05043A   24197.55436747  .00000732  00000+0  15411-3 0  9999
2 28890  98.2033 320.2104 0014029 321.4811  38.5388 14.62393572998049
HUANJING 1A (HJ-1A)     
1 33320U 08041A   24197.49116337  .00002788  00000+0  37313-3 0  9995
2 33320  97.6310 203.1077 0018565 279.5320  80.3795 14.80100512854542
HUANJING 1B (HJ-1B)     
1 33321U 08041B   24197.48978282  .00001956  00000+0  25994-3 0  9998
2 33321  97.6261 207.6389 0037298 325.6143  34.2656 14.80368625854560
YAOGAN-4                
1 33446U 08061A   24197.42169552  .00002050  00000+0  27785-3 0  9990
2 33446  97.8795 128.7670 0014502 187.2167 172.8838 14.79930063841734
DEIMOS-1                
1 35681U 09041A   24197.51528389  .00001180  00000+0  18927-3 0  9990
2 35681  97.6811  17.9202 0000621  16.4581 343.6648 14.73394702803489
UK-DMC 2                
1 35683U 09041C   24197.52281373  .00001739  00000+0  27551-3 0  9995
2 35683  97.7847 344.0075 0001401  83.1080 277.0288 14.73418644803184
DMC3-FM1                
1 40715U 15032A   24197.55638279  .00001309  00000+0  16435-3 0  9990
2 40715  97.7467  75.6365 0005350 184.9500 175.1662 14.83760689485783
DMC3-FM2                
1 40716U 15032B   24197.51167940  .00001350  00000+0  16930-3 0  9995
2 40716  97.7520  76.6815 0007087 194.0769 166.0249 14.83767414485775
DMC3-FM3                
1 40717U 15032C   24197.53796241  .00001305  00000+0  16416-3 0  9999
2 40717  97.7569  77.9963 0008607 192.8337 167.2659 14.83675509485785
NOAA 15                 
1 25338U 98030A   24197.50140348  .00000429  00000+0  19549-3 0  9994
2 25338  98.5672 224.0356 0009270 238.1973 121.8305 14.26628039361475
DMSP 5D-3 F16 (USA 172) 
1 28054U 03048A   24197.54317729  .00000222  00000+0  14097-3 0  9994
2 28054  99.0205 204.2770 0006917 341.7888 178.5551 14.14050118 70284
NOAA 18                 
1 28654U 05018A   24197.45673944  .00000370  00000+0  22112-3 0  9994
2 28654  98.8739 274.1869 0013768 347.5510  12.5320 14.13253348987256
METEOSAT-9 (MSG-2)      
1 28912U 05049B   24196.78607633  .00000136  00000+0  00000+0 0  9990
2 28912   7.7473  60.6374 0002015   4.0325 197.1848  1.00277125 68007
EWS-G1 (GOES 13)        
1 29155U 06018A   24196.87485596 -.00000163  00000+0  00000+0 0  9990
2 29155   2.6956  84.9806 0077602 255.9723  21.6807  0.99053621 66430
DMSP 5D-3 F17 (USA 191) 
1 29522U 06050A   24197.55167244  .00000234  00000+0  14461-3 0  9995
2 29522  98.7434 207.5419 0008902 257.7318 102.2859 14.14501230913200
FENGYUN 3A              
1 32958U 08026A   24197.44687241  .00000297  00000+0  16229-3 0  9992
2 32958  98.6047 143.7511 0008721 359.1886   0.9274 14.19121578835965
NOAA 19                 
1 33591U 09005A   24197.48297418  .00000357  00000+0  21539-3 0  9998
2 33591  99.0455 253.5796 0013400 208.6161 151.4277 14.13047897795624
GOES 14                 
1 35491U 09033A   24196.89869663 -.00000049  00000+0  00000+0 0  9996
2 35491   0.4019 101.4819 0003936   9.0449  37.7547  1.00272748 55070
DMSP 5D-3 F18 (USA 210) 
1 35951U 09057A   24197.49446261  .00000523  00000+0  29716-3 0  9990
2 35951  98.8150 172.4657 0012420  86.4046 273.8547 14.14165724760368
EWS-G2 (GOES 15)        
1 36411U 10008A   24196.86092880  .00000056  00000+0  00000+0 0  9996
2 36411   0.3743  88.9837 0003065 103.1132 112.1891  1.00272300 52591
COMS 1                  
1 36744U 10032A   24196.94574814 -.00000329  00000+0  00000+0 0  9997
2 36744   3.0110  84.0641 0000979  26.3748 291.4556  1.00271930 51617
FENGYUN 3B              
1 37214U 10059A   24197.58299619  .00000216  00000+0  13625-3 0  9992
2 37214  99.0537 226.0700 0022404  15.2923  98.4806 14.14520289708267
SUOMI NPP               
1 37849U 11061A   24197.51849062  .00000187  00000+0  10967-3 0  9999
2 37849  98.7221 135.0736 0001371 123.3210 236.8098 14.19529493658889
FENGYUN 2F              
1 38049U 12002A   24197.01414793 -.00000344  00000+0  00000+0 0  9991
2 38049   5.6603  72.8583 0001674 114.8679 222.8898  1.00269583 45847
METEOSAT-10 (MSG-3)     
1 38552U 12035B   24197.34958953  .00000009  00000+0  00000+0 0  9990
2 38552   3.0264  61.1815 0000382 334.9811  23.3692  1.00272439 44184
METOP-B                 
1 38771U 12049A   24197.47000037 -.00000054  00000+0 -50364-5 0  9999
2 38771  98.6264 254.0557 0001273  81.5576 278.5746 14.21447601613566
INSAT-3D                
1 39216U 13038B   24197.52543044 -.00000332  00000+0  00000+0 0  9993
2 39216   0.1058  96.3248 0000983  68.9783  61.2255  1.00567442 40262
FENGYUN 3C              
1 39260U 13052A   24197.56836748  .00000209  00000+0  12606-3 0  9999
2 39260  98.4289 195.6709 0009910 242.4620 117.5549 14.16230346559346
METEOR-M 2              
1 40069U 14037A   24197.54802761  .00000262  00000+0  14018-3 0  9996
2 40069  98.4372 190.5197 0004512 278.7751  81.2916 14.20995642519650
HIMAWARI-8              
1 40267U 14060A   24197.47066935 -.00000257  00000+0  00000+0 0  9996
2 40267   0.0394 220.9473 0001134 256.9093 126.0637  1.00273624 35825
FENGYUN 2G              
1 40367U 14090A   24196.90791295 -.00000287  00000+0  00000+0 0  9994
2 40367   3.8589  81.2274 0002491 135.7400 142.4228  1.00280839 34950
METEOSAT-11 (MSG-4)     
1 40732U 15034A   24196.92207797  .00000078  00000+0  00000+0 0  9997
2 40732   1.4509  69.7096 0001279 163.5842  41.1064  1.00271440   186
